NORAD_CAT_ID,OBJECT_NAME,OBJECT_TYPE,EPOCH,MEAN_MOTION,ECCENTRICITY,INCLINATION,RA_OF_ASC_NODE,ARG_OF_PERICENTER,MEAN_ANOMALY,BSTAR,MEAN_MOTION_DOT,MEAN_MOTION_DDOT,TLE_LINE0,TLE_LINE1,TLE_LINE2,SEMIMAJOR_AXIS,PERIOD,APOGEE,PERIGEE,DECAYED
53970.0,STARLINK-4567,PAYLOAD,2024-06-15 10:34:04,15.08851907,0.0001322,53.2152,177.4401,73.6804,286.4333,0.00029785,4.457e-05,0.0,0 STARLINK-4567,1 53970U 22125G   24167.44033145  .00004457  00000-0  29785-3 0  9994,2 53970  53.2152 177.4401 0001322  73.6804 286.4333 15.08851907 93953,6917.844,95.437,540.624,538.794,0.0
53970.0,STARLINK-4567,PAYLOAD,2024-06-16 10:24:49,15.08880034,0.0001375,53.2152,172.9794,72.1388,287.9754,0.00056312,8.695e-05,0.0,0 STARLINK-4567,1 53970U 22125G   24168.43390818  .00008695  00000-0  56312-3 0  9991,2 53970  53.2152 172.9794 0001375  72.1388 287.9754 15.08880034 94101,6917.758,95.435,540.574,538.672,0.0
53970.0,STARLINK-4567,PAYLOAD,2024-06-16 16:46:22,15.08864302,0.0001469,53.2152,171.785,68.0137,292.1011,5.542e-05,5.95e-06,0.0,0 STARLINK-4567,1 53970U 22125G   24168.69886806  .00000595  00000-0  55420-4 0  9997,2 53970  53.2152 171.7850 0001469  68.0137 292.1011 15.08864302 94149,6917.806,95.436,540.687,538.655,0.0
53970.0,STARLINK-4567,PAYLOAD,2024-06-17 16:37:09,15.08836048,0.0001409,53.2159,167.3302,83.5716,276.5437,-0.00025245,-4.303e-05,0.0,0 STARLINK-4567,1 53970U 22125G   24169.69247474 -.00004303  00000-0 -25245-3 0  9994,2 53970  53.2159 167.3302 0001409  83.5716 276.5437 15.08836048 94355,6917.892,95.438,540.732,538.783,0.0
53970.0,STARLINK-4567,PAYLOAD,2024-06-18 08:31:01,15.08838415,0.0001396,53.2158,164.3565,83.4534,276.6617,-0.00013367,-2.415e-05,0.0,0 STARLINK-4567,1 53970U 22125G   24170.35487787 -.00002415  00000-0 -13367-3 0  9996,2 53970  53.2158 164.3565 0001396  83.4534 276.6617 15.08838415 94399,6917.885,95.438,540.716,538.784,0.0
53970.0,STARLINK-4567,PAYLOAD,2024-06-18 16:27:57,15.08831443,0.0001385,53.2157,162.8694,83.4117,276.7033,-0.00016442,-2.903e-05,0.0,0 STARLINK-4567,1 53970U 22125G   24170.68608298 -.00002903  00000-0 -16442-3 0  9993,2 53970  53.2157 162.8694 0001385  83.4117 276.7033 15.08831443 94442,6917.907,95.438,540.73,538.813,0.0
53970.0,STARLINK-4567,PAYLOAD,2024-06-19 05:11:03,15.08822808,0.000135,53.2152,160.4899,82.1565,277.9581,1.975e-05,2.6e-07,0.0,0 STARLINK-4567,1 53970U 22125G   24171.21601320  .00000026  00000-0  19750-4 0  9990,2 53970  53.2152 160.4899 0001350  82.1565 277.9581 15.08822808 94584,6917.933,95.439,540.732,538.864,0.0
53970.0,STARLINK-4567,PAYLOAD,2024-06-19 13:07:59,15.08828727,0.0001348,53.2165,159.0034,85.0028,275.1118,0.00010932,1.452e-05,0.0,0 STARLINK-4567,1 53970U 22125G   24171.54721481  .00001452  00000-0  10932-3 0  9993,2 53970  53.2165 159.0034 0001348  85.0028 275.1118 15.08828727 94577,6917.915,95.438,540.712,538.847,0.0
53970.0,STARLINK-4567,PAYLOAD,2024-06-19 22:40:18,15.08828593,0.0001348,53.2165,157.219,88.0246,272.09,0.00010182,1.332e-05,0.0,0 STARLINK-4567,1 53970U 22125G   24171.94465802  .00001332  00000-0  10182-3 0  9993,2 53970  53.2165 157.2190 0001348  88.0246 272.0900 15.08828593 94638,6917.915,95.438,540.713,538.848,0.0
53970.0,STARLINK-4567,PAYLOAD,2024-06-20 06:37:14,15.08832252,0.0001386,53.2168,155.7326,88.6905,271.4246,0.00012857,1.758e-05,0.0,0 STARLINK-4567,1 53970U 22125G   24172.27585777  .00001758  00000-0  12857-3 0  9997,2 53970  53.2168 155.7326 0001386  88.6905 271.4246 15.08832252 94683,6917.904,95.438,540.728,538.81,0.0
53970.0,STARLINK-4567,PAYLOAD,2024-06-20 22:31:05,15.08837365,0.0001432,53.2158,152.7581,87.7741,272.3415,0.00023142,3.397e-05,0.0,0 STARLINK-4567,1 53970U 22125G   24172.93825913  .00003397  00000-0  23142-3 0  9999,2 53970  53.2158 152.7581 0001432  87.7741 272.3415 15.08837365 94848,6917.888,95.438,540.744,538.763,0.0
53970.0,STARLINK-4567,PAYLOAD,2024-06-21 08:03:24,15.08845233,0.0001409,53.2157,150.9739,88.5867,271.5287,0.00028652,4.276e-05,0.0,0 STARLINK-4567,1 53970U 22125G   24173.33569636  .00004276  00000-0  28652-3 0  9999,2 53970  53.2157 150.9739 0001409  88.5867 271.5287 15.08845233 94845,6917.864,95.437,540.704,538.755,0.0
53970.0,STARLINK-4567,PAYLOAD,2024-06-22 04:43:24,15.08847019,0.0001434,53.2159,147.1081,88.552,271.5637,0.00018274,2.622e-05,0.0,0 STARLINK-4567,1 53970U 22125G   24174.19681485  .00002622  00000-0  18274-3 0  9993,2 53970  53.2159 147.1081 0001434  88.5520 271.5637 15.08847019 95034,6917.859,95.437,540.716,538.732,0.0
53970.0,STARLINK-4567,PAYLOAD,2024-06-22 22:12:39,15.08844461,0.0001518,53.2162,143.8372,88.3951,271.7215,7.7078e-05,9.39e-06,0.0,0 STARLINK-4567,1 53970U 22125G   24174.92545507  .00000939  00000-0  77078-4 0  9995,2 53970  53.2162 143.8372 0001518  88.3951 271.7215 15.08844461 95080,6917.867,95.437,540.782,538.682,0.0
53970.0,STARLINK-4567,PAYLOAD,2024-06-23 04:34:11,15.08844154,0.0001445,53.2175,142.6476,102.5139,257.6014,3.8402e-05,3.23e-06,0.0,0 STARLINK-4567,1 53970U 22125G   24175.19041457  .00000323  00000-0  38402-4 0  9995,2 53970  53.2175 142.6476 0001445 102.5139 257.6014 15.08844154 95182,6917.868,95.437,540.732,538.733,0.0
53970.0,STARLINK-4567,PAYLOAD,2024-06-23 07:44:58,15.0884429,0.0001427,53.2173,142.0528,101.0771,259.0382,3.308e-05,2.39e-06,0.0,0 STARLINK-4567,1 53970U 22125G   24175.32289402  .00000239  00000-0  33080-4 0  9997,2 53970  53.2173 142.0528 0001427 101.0771 259.0382 15.08844290 95149,6917.867,95.437,540.719,538.745,0.0
53970.0,STARLINK-4567,PAYLOAD,2024-06-23 22:03:26,15.08837116,0.0001446,53.2175,139.3761,92.9283,267.1875,4.1273e-05,3.69e-06,0.0,0 STARLINK-4567,1 53970U 22125G   24175.91905806  .00000369  00000-0  41273-4 0  9992,2 53970  53.2175 139.3761 0001446  92.9283 267.1875 15.08837116 95232,6917.889,95.438,540.755,538.754,0.0
53970.0,STARLINK-4567,PAYLOAD,2024-06-24 07:35:45,15.08840138,0.0001452,53.2174,137.592,93.3333,266.7825,5.5695e-05,5.99e-06,0.0,0 STARLINK-4567,1 53970U 22125G   24176.31649572  .00000599  00000-0  55695-4 0  9990,2 53970  53.2174 137.5920 0001452  93.3333 266.7825 15.08840138 95357,6917.88,95.438,540.749,538.74,0.0
53970.0,STARLINK-4567,PAYLOAD,2024-06-25 02:40:23,15.08834424,0.0001433,53.2173,134.0231,101.1063,259.0091,2.4235e-05,9.8e-07,0.0,0 STARLINK-4567,1 53970U 22125G   24177.11138151  .00000098  00000-0  24235-4 0  9995,2 53970  53.2173 134.0231 0001433 101.1063 259.0091 15.08834424 95474,6917.897,95.438,540.754,538.771,0.0
53970.0,STARLINK-4567,PAYLOAD,2024-06-26 04:06:32,15.08845586,0.0001284,53.2167,129.2673,100.6543,259.4593,0.00010999,1.463e-05,0.0,0 STARLINK-4567,1 53970U 22125G   24178.17121493  .00001463  00000-0  10999-3 0  9991,2 53970  53.2167 129.2673 0001284 100.6543 259.4593 15.08845586 95634,6917.863,95.437,540.617,538.84,0.0
53970.0,STARLINK-4567,PAYLOAD,2024-06-27 03:57:20,15.08843652,0.0001206,53.2165,124.8097,107.6232,252.4891,0.00012057,1.632e-05,0.0,0 STARLINK-4567,1 53970U 22125G   24179.16481789  .00001632  00000-0  12057-3 0  9993,2 53970  53.2165 124.8097 0001206 107.6232 252.4891 15.08843652 95781,6917.869,95.437,540.569,538.9,0.0
53970.0,STARLINK-4567,PAYLOAD,2024-06-28 03:48:07,15.08842586,0.000125,53.2163,120.3478,96.1435,263.9699,5.7971e-05,6.35e-06,0.0,0 STARLINK-4567,1 53970U 22125G   24180.15842319  .00000635  00000-0  57971-4 0  9991,2 53970  53.2163 120.3478 0001250  96.1435 263.9699 15.08842586 95934,6917.872,95.437,540.602,538.873,0.0
53970.0,STARLINK-4567,PAYLOAD,2024-06-28 13:20:26,15.08844783,0.0001145,53.2161,118.5614,88.4166,271.6958,0.00011411,1.529e-05,0.0,0 STARLINK-4567,1 53970U 22125G   24180.55586064  .00001529  00000-0  11411-3 0  9998,2 53970  53.2161 118.5614 0001145  88.4166 271.6958 15.08844783 95936,6917.866,95.437,540.523,538.939,0.0
53970.0,STARLINK-4567,PAYLOAD,2024-06-29 02:03:30,15.08859608,0.000118,53.2147,116.1812,99.8862,260.2264,0.00026104,3.871e-05,0.0,0 STARLINK-4567,1 53970U 22125G   24181.08577160  .00003871  00000-0  26104-3 0  9991,2 53970  53.2147 116.1812 0001180  99.8862 260.2264 15.08859608 96074,6917.82,95.436,540.502,538.869,0.0
53970.0,STARLINK-4567,PAYLOAD,2024-06-29 13:11:13,15.088406,0.000136,53.2157,114.098,97.9795,262.1351,0.00011351,1.519e-05,0.0,0 STARLINK-4567,1 53970U 22125G   24181.54946100  .00001519  00000-0  11351-3 0  9991,2 53970  53.2157 114.0980 0001360  97.9795 262.1351 15.08840600 96140,6917.879,95.438,540.684,538.803,0.0
53970.0,STARLINK-4567,PAYLOAD,2024-06-29 19:32:46,15.08832912,0.0002332,53.2153,112.9107,83.9578,276.168,-6.2921e-05,-1.289e-05,0.0,0 STARLINK-4567,1 53970U 22125G   24181.81442932 -.00001289  00000-0 -62921-4 0  9991,2 53970  53.2153 112.9107 0002332  83.9578 276.1680 15.08832912 96189,6917.902,95.438,541.38,538.154,0.0
53970.0,STARLINK-4567,PAYLOAD,2024-06-29 22:43:33,15.08820609,0.0001485,53.215,112.3164,85.8639,274.2523,-0.00028985,-4.895e-05,0.0,0 STARLINK-4567,1 53970U 22125G   24181.94691262 -.00004895  00000-0 -28985-3 0  9994,2 53970  53.2150 112.3164 0001485  85.8639 274.2523 15.08820609 96141,6917.94,95.439,540.832,538.777,0.0
53970.0,STARLINK-4567,PAYLOAD,2024-06-30 05:05:06,15.08822871,0.0001579,53.2162,111.1271,85.7029,274.4143,-0.00018025,-3.154e-05,0.0,0 STARLINK-4567,1 53970U 22125G   24182.21187507 -.00003154  00000-0 -18025-3 0  9998,2 53970  53.2162 111.1271 0001579  85.7029 274.4143 15.08822871 96240,6917.933,95.439,540.89,538.705,0.0
53970.0,STARLINK-4567,PAYLOAD,2024-06-30 22:34:19,15.08852145,0.0001453,53.2158,107.8572,76.7993,283.3161,0.00043673,6.672e-05,0.0,0 STARLINK-4567,1 53970U 22125G   24182.94050686  .00006672  00000-0  43673-3 0  9998,2 53970  53.2158 107.8572 0001453  76.7993 283.3161 15.08852145 96293,6917.843,95.437,540.713,538.703,0.0
53970.0,STARLINK-4567,PAYLOAD,2024-07-01 01:45:06,15.08861968,0.0001503,53.2164,107.2627,74.0134,286.1023,0.0013367,0.00021062,0.0,0 STARLINK-4567,1 53970U 22125G   24183.07298970  .00021062  00000-0  13367-2 0  9999,2 53970  53.2164 107.2627 0001503  74.0134 286.1023 15.08861968 96379,6917.813,95.436,540.718,538.638,0.0
